[{"OBJECT_NAME":"STARLINK-31604","OBJECT_ID":"2024-046P","EPOCH":"2026-03-09T12:22:28.293600","MEAN_MOTION":15.30187545,"ECCENTRICITY":0.00010947,"INCLINATION":53.1588,"RA_OF_ASC_NODE":156.0884,"ARG_OF_PERICENTER":82.9658,"MEAN_ANOMALY":277.1468,"EPHEMERIS_TYPE":0,"CLASSIFICATION_TYPE":"U","NORAD_CAT_ID":59214,"ELEMENT_SET_NO":999,"REV_AT_EPOCH":11301,"BSTAR":5.5737997e-5,"MEAN_MOTION_DOT":1.291e-5,"MEAN_MOTION_DDOT":0},{"OBJECT_NAME":"TRANSPORTER-12 OBJECT AZ","OBJECT_ID":"2025-009AZ","EPOCH":"2026-03-09T17:02:46.667040","MEAN_MOTION":15.30349724,"ECCENTRICITY":9.87e-5,"INCLINATION":97.3981,"RA_OF_ASC_NODE":151.9913,"ARG_OF_PERICENTER":45.3581,"MEAN_ANOMALY":314.774,"EPHEMERIS_TYPE":0,"CLASSIFICATION_TYPE":"U","NORAD_CAT_ID":62656,"ELEMENT_SET_NO":999,"REV_AT_EPOCH":6379,"BSTAR":0.00054902545,"MEAN_MOTION_DOT":0.00016057,"MEAN_MOTION_DDOT":0}]
