STARLINK-31604          
1 59214U 24046P   26068.51560525  .00001291  00000+0  55738-4 0  9992
2 59214  53.1588 156.0884 0001094  82.9658 277.1468 15.30187545113017
TRANSPORTER-12 OBJECT AZ
1 62656U 25009AZ  26068.71026235  .00016057  00000+0  54903-3 0  9991
2 62656  97.3981 151.9913 0000987  45.3581 314.7740 15.30349724 63792
